start=new Date('2023-04-02T00:00:00.000Z').valueOf();
sats=[{"MEAN_MOTION":"15.75328284","MEAN_ELEMENT_THEORY":"SGP4","CLASSIFICATION_TYPE":"U","TLE_LINE2":"2 55955  70.0002 138.5029 0003625 284.8296 222.4332 15.75328284  1300","COUNTRY_CODE":"US","EPHEMERIS_TYPE":"0","PERIOD":"91.410","MEAN_ANOMALY":"222.4332","REF_FRAME":"TEME","BSTAR":"-0.00662680000000","PERIAPSIS":"341.263","GP_ID":"229281768","OBJECT_ID":"2023-037AT","OBJECT_TYPE":"PAYLOAD","SEMIMAJOR_AXIS":"6721.834","SITE":"AFWTR","EPOCH":"2023-04-01T22:00:00.999936","INCLINATION":"70.0002","CENTER_NAME":"EARTH","APOAPSIS":"346.136","REV_AT_EPOCH":"130","NORAD_CAT_ID":"55955","ECCENTRICITY":"0.00036250","FILE":"3877516","TLE_LINE1":"1 55955U 23037AT  23091.91667824 -.00902631  00000-0 -66268-2 0  9995","RCS_SIZE":"LARGE","DECAY_DATE":null,"ELEMENT_SET_NO":"999","ARG_OF_PERICENTER":"284.8296","OBJECT_NAME":"STARLINK-5878","LAUNCH_DATE":"2023-03-17","RA_OF_ASC_NODE":"138.5029","MEAN_MOTION_DOT":"-0.00902631","TIME_SYSTEM":"UTC","MEAN_MOTION_DDOT":"0.0000000000000"},{"SITE":"AFWTR","CENTER_NAME":"EARTH","INCLINATION":"70.0001","APOAPSIS":"345.909","EPOCH":"2023-04-01T22:00:00.999936","REV_AT_EPOCH":"130","NORAD_CAT_ID":"55956","FILE":"3877516","ECCENTRICITY":"0.00035880","TLE_LINE2":"2 55956  70.0001 138.4988 0003588 283.1181 227.6050 15.75399420  1300","COUNTRY_CODE":"US","CLASSIFICATION_TYPE":"U","EPHEMERIS_TYPE":"0","PERIOD":"91.405","MEAN_MOTION":"15.75399420","MEAN_ELEMENT_THEORY":"SGP4","MEAN_ANOMALY":"227.6050","PERIAPSIS":"341.085","GP_ID":"229281804","BSTAR":"-0.00661040000000","REF_FRAME":"TEME","SEMIMAJOR_AXIS":"6721.632","OBJECT_TYPE":"PAYLOAD","OBJECT_ID":"2023-037AU","TIME_SYSTEM":"UTC","MEAN_MOTION_DOT":"-0.00903139","RA_OF_ASC_NODE":"138.4988","MEAN_MOTION_DDOT":"0.0000000000000","ELEMENT_SET_NO":"999","DECAY_DATE":null,"TLE_LINE1":"1 55956U 23037AU  23091.91667824 -.00903139  00000-0 -66104-2 0  9999","RCS_SIZE":"LARGE","ARG_OF_PERICENTER":"283.1181","OBJECT_NAME":"STARLINK-5883","LAUNCH_DATE":"2023-03-17"},{"REF_FRAME":"TEME","BSTAR":"-0.00662850000000","PERIAPSIS":"341.371","GP_ID":"229281865","OBJECT_TYPE":"PAYLOAD","OBJECT_ID":"2023-037AV","SEMIMAJOR_AXIS":"6721.860","MEAN_MOTION":"15.75319156","MEAN_ELEMENT_THEORY":"SGP4","CLASSIFICATION_TYPE":"U","TLE_LINE2":"2 55957  70.0002 138.5035 0003502 278.5221 228.2347 15.75319156  1309","COUNTRY_CODE":"US","EPHEMERIS_TYPE":"0","PERIOD":"91.410","MEAN_ANOMALY":"228.2347","REV_AT_EPOCH":"130","NORAD_CAT_ID":"55957","ECCENTRICITY":"0.00035020","FILE":"3877516","SITE":"AFWTR","EPOCH":"2023-04-01T22:00:00.999936","INCLINATION":"70.0002","CENTER_NAME":"EARTH","APOAPSIS":"346.079","LAUNCH_DATE":"2023-03-17","RCS_SIZE":"LARGE","TLE_LINE1":"1 55957U 23037AV  23091.91667824 -.00902458  00000-0 -66285-2 0  9993","ELEMENT_SET_NO":"999","DECAY_DATE":null,"ARG_OF_PERICENTER":"278.5221","OBJECT_NAME":"STARLINK-5884","MEAN_MOTION_DDOT":"0.0000000000000","MEAN_MOTION_DOT":"-0.00902458","RA_OF_ASC_NODE":"138.5035","TIME_SYSTEM":"UTC"},{"MEAN_ELEMENT_THEORY":"SGP4","MEAN_MOTION":"15.75339017","PERIOD":"91.409","TLE_LINE2":"2 55958  70.0002 138.5023 0003585 283.1539 224.5980 15.75339017  1302","CLASSIFICATION_TYPE":"U","COUNTRY_CODE":"US","EPHEMERIS_TYPE":"0","MEAN_ANOMALY":"224.5980","BSTAR":"-0.00662410000000","REF_FRAME":"TEME","PERIAPSIS":"341.259","GP_ID":"229281709","OBJECT_TYPE":"PAYLOAD","OBJECT_ID":"2023-037AW","SEMIMAJOR_AXIS":"6721.804","SITE":"AFWTR","EPOCH":"2023-04-01T22:00:00.999936","APOAPSIS":"346.078","INCLINATION":"70.0002","CENTER_NAME":"EARTH","NORAD_CAT_ID":"55958","REV_AT_EPOCH":"130","ECCENTRICITY":"0.00035850","FILE":"3877516","RCS_SIZE":"LARGE","TLE_LINE1":"1 55958U 23037AW  23091.91667824 -.00902664  00000-0 -66241-2 0  9995","ELEMENT_SET_NO":"999","DECAY_DATE":null,"OBJECT_NAME":"STARLINK-5928","ARG_OF_PERICENTER":"283.1539","LAUNCH_DATE":"2023-03-17","RA_OF_ASC_NODE":"138.5023","MEAN_MOTION_DOT":"-0.00902664","TIME_SYSTEM":"UTC","MEAN_MOTION_DDOT":"0.0000000000000"},{"MEAN_MOTION_DDOT":"0.0000000000000","TIME_SYSTEM":"UTC","RA_OF_ASC_NODE":"138.5017","MEAN_MOTION_DOT":"-0.00902632","LAUNCH_DATE":"2023-03-17","ARG_OF_PERICENTER":"284.0138","OBJECT_NAME":"STARLINK-5929","DECAY_DATE":null,"ELEMENT_SET_NO":"999","RCS_SIZE":"LARGE","TLE_LINE1":"1 55959U 23037AX  23091.91667824 -.00902632  00000-0 -66208-2 0  9994","FILE":"3877516","ECCENTRICITY":"0.00036070","REV_AT_EPOCH":"130","NORAD_CAT_ID":"55959","INCLINATION":"70.0002","CENTER_NAME":"EARTH","APOAPSIS":"346.064","EPOCH":"2023-04-01T22:00:00.999936","SITE":"AFWTR","SEMIMAJOR_AXIS":"6721.775","OBJECT_ID":"2023-037AX","OBJECT_TYPE":"PAYLOAD","GP_ID":"229281894","PERIAPSIS":"341.215","BSTAR":"-0.00662080000000","REF_FRAME":"TEME","MEAN_ANOMALY":"224.2318","TLE_LINE2":"2 55959  70.0002 138.5017 0003607 284.0138 224.2318 15.75349167  1305","COUNTRY_CODE":"US","CLASSIFICATION_TYPE":"U","EPHEMERIS_TYPE":"0","PERIOD":"91.408","MEAN_MOTION":"15.75349167","MEAN_ELEMENT_THEORY":"SGP4"},{"LAUNCH_DATE":"2023-03-17","RCS_SIZE":"LARGE","TLE_LINE1":"1 55960U 23037AY  23091.91667824 -.00902811  00000-0 -66024-2 0  9991","DECAY_DATE":null,"ELEMENT_SET_NO":"999","ARG_OF_PERICENTER":"280.3543","OBJECT_NAME":"STARLINK-5938","MEAN_MOTION_DDOT":"0.0000000000000","RA_OF_ASC_NODE":"138.4976","MEAN_MOTION_DOT":"-0.00902811","TIME_SYSTEM":"UTC","BSTAR":"-0.00660240000000","REF_FRAME":"TEME","GP_ID":"229281680","PERIAPSIS":"341.072","OBJECT_TYPE":"PAYLOAD","OBJECT_ID":"2023-037AY","SEMIMAJOR_AXIS":"6721.577","MEAN_MOTION":"15.75418612","MEAN_ELEMENT_THEORY":"SGP4","CLASSIFICATION_TYPE":"U","TLE_LINE2":"2 55960  70.0001 138.4976 0003526 280.3543 231.3645 15.75418612  1302","COUNTRY_CODE":"US","EPHEMERIS_TYPE":"0","PERIOD":"91.404","MEAN_ANOMALY":"231.3645","REV_AT_EPOCH":"130","NORAD_CAT_ID":"55960","ECCENTRICITY":"0.00035260","FILE":"3877516","SITE":"AFWTR","EPOCH":"2023-04-01T22:00:00.999936","CENTER_NAME":"EARTH","INCLINATION":"70.0001","APOAPSIS":"345.812"},{"REF_FRAME":"TEME","BSTAR":"-0.00661110000000","GP_ID":"229281740","PERIAPSIS":"341.079","OBJECT_ID":"2023-037AZ","OBJECT_TYPE":"PAYLOAD","SEMIMAJOR_AXIS":"6721.660","MEAN_MOTION":"15.75389611","MEAN_ELEMENT_THEORY":"SGP4","EPHEMERIS_TYPE":"0","TLE_LINE2":"2 55961  70.0002 138.4994 0003638 285.4273 224.7977 15.75389611  1304","COUNTRY_CODE":"US","CLASSIFICATION_TYPE":"U","PERIOD":"91.406","MEAN_ANOMALY":"224.7977","REV_AT_EPOCH":"130","NORAD_CAT_ID":"55961","ECCENTRICITY":"0.00036380","FILE":"3877516","SITE":"AFWTR","EPOCH":"2023-04-01T22:00:00.999936","INCLINATION":"70.0002","CENTER_NAME":"EARTH","APOAPSIS":"345.970","LAUNCH_DATE":"2023-03-17","TLE_LINE1":"1 55961U 23037AZ  23091.91667824 -.00902898  00000-0 -66111-2 0  9994","RCS_SIZE":"LARGE","DECAY_DATE":null,"ELEMENT_SET_NO":"999","ARG_OF_PERICENTER":"285.4273","OBJECT_NAME":"STARLINK-5933","MEAN_MOTION_DDOT":"0.0000000000000","MEAN_MOTION_DOT":"-0.00902898","RA_OF_ASC_NODE":"138.4994","TIME_SYSTEM":"UTC"},{"LAUNCH_DATE":"2023-03-17","ELEMENT_SET_NO":"999","DECAY_DATE":null,"RCS_SIZE":"LARGE","TLE_LINE1":"1 55962U 23037BA  23091.91667824 -.00902727  00000-0 -66158-2 0  9997","ARG_OF_PERICENTER":"282.4721","OBJECT_NAME":"STARLINK-5906","MEAN_MOTION_DDOT":"0.0000000000000","TIME_SYSTEM":"UTC","MEAN_MOTION_DOT":"-0.00902727","RA_OF_ASC_NODE":"138.5004","PERIAPSIS":"341.180","GP_ID":"229281835","BSTAR":"-0.00661580000000","REF_FRAME":"TEME","SEMIMAJOR_AXIS":"6721.717","OBJECT_ID":"2023-037BA","OBJECT_TYPE":"PAYLOAD","COUNTRY_CODE":"US","TLE_LINE2":"2 55962  70.0002 138.5004 0003573 282.4721 226.7622 15.75369480  1302","EPHEMERIS_TYPE":"0","CLASSIFICATION_TYPE":"U","PERIOD":"91.407","MEAN_MOTION":"15.75369480","MEAN_ELEMENT_THEORY":"SGP4","MEAN_ANOMALY":"226.7622","REV_AT_EPOCH":"130","NORAD_CAT_ID":"55962","FILE":"3877516","ECCENTRICITY":"0.00035730","SITE":"AFWTR","INCLINATION":"70.0002","CENTER_NAME":"EARTH","APOAPSIS":"345.984","EPOCH":"2023-04-01T22:00:00.999936"},{"TIME_SYSTEM":"UTC","RA_OF_ASC_NODE":"138.5011","MEAN_MOTION_DOT":"-0.00902664","MEAN_MOTION_DDOT":"0.0000000000000","ARG_OF_PERICENTER":"281.4544","OBJECT_NAME":"STARLINK-5924","ELEMENT_SET_NO":"999","DECAY_DATE":null,"RCS_SIZE":"LARGE","TLE_LINE1":"1 55963U 23037BB  23091.91667824 -.00902664  00000-0 -66183-2 0  9996","LAUNCH_DATE":"2023-03-17","INCLINATION":"70.0002","CENTER_NAME":"EARTH","APOAPSIS":"345.998","EPOCH":"2023-04-01T22:00:00.999936","SITE":"AFWTR","FILE":"3877516","ECCENTRICITY":"0.00035510","REV_AT_EPOCH":"130","NORAD_CAT_ID":"55963","MEAN_ANOMALY":"227.2850","COUNTRY_CODE":"US","TLE_LINE2":"2 55963  70.0002 138.5011 0003551 281.4544 227.2850 15.75359393  1300","CLASSIFICATION_TYPE":"U","EPHEMERIS_TYPE":"0","PERIOD":"91.408","MEAN_MOTION":"15.75359393","MEAN_ELEMENT_THEORY":"SGP4","SEMIMAJOR_AXIS":"6721.746","OBJECT_TYPE":"PAYLOAD","OBJECT_ID":"2023-037BB","PERIAPSIS":"341.224","GP_ID":"229281769","REF_FRAME":"TEME","BSTAR":"-0.00661830000000"},{"OBJECT_NAME":"STARLINK-5895","ARG_OF_PERICENTER":"273.4902","TLE_LINE1":"1 55964U 23037BC  23091.91667824 -.00902089  00000-0 -66313-2 0  9993","RCS_SIZE":"LARGE","DECAY_DATE":null,"ELEMENT_SET_NO":"999","LAUNCH_DATE":"2023-03-17","MEAN_MOTION_DOT":"-0.00902089","RA_OF_ASC_NODE":"138.5044","TIME_SYSTEM":"UTC","MEAN_MOTION_DDOT":"0.0000000000000","MEAN_ANOMALY":"232.2649","MEAN_ELEMENT_THEORY":"SGP4","MEAN_MOTION":"15.75299806","PERIOD":"91.411","TLE_LINE2":"2 55964  70.0002 138.5044 0003455 273.4902 232.2649 15.75299806  1303","COUNTRY_CODE":"US","CLASSIFICATION_TYPE":"U","EPHEMERIS_TYPE":"0","OBJECT_ID":"2023-037BC","OBJECT_TYPE":"PAYLOAD","SEMIMAJOR_AXIS":"6721.915","REF_FRAME":"TEME","BSTAR":"-0.00663130000000","PERIAPSIS":"341.458","GP_ID":"229281805","EPOCH":"2023-04-01T22:00:00.999936","APOAPSIS":"346.103","INCLINATION":"70.0002","CENTER_NAME":"EARTH","SITE":"AFWTR","ECCENTRICITY":"0.00034550","FILE":"3877516","NORAD_CAT_ID":"55964","REV_AT_EPOCH":"130"}];
